<?xml version="1.0" encoding="UTF-8"?>
<ndm xmlns:xsi="http://www.w3.org/2001/XMLSchema-instance" xsi:noNamespaceSchemaLocation="https://sanaregistry.org/r/ndmxml_unqualified/ndmxml-2.0.0-master-2.0.xsd">
<omm id="CCSDS_OMM_VERS" version="2.0">
<header><CREATION_DATE/><ORIGINATOR/></header><body><segment><metadata><OBJECT_NAME>KUIPER-00044</OBJECT_NAME><OBJECT_ID>2025-134F</OBJECT_ID><CENTER_NAME>EARTH</CENTER_NAME><REF_FRAME>TEME</REF_FRAME><TIME_SYSTEM>UTC</TIME_SYSTEM><MEAN_ELEMENT_THEORY>SGP4</MEAN_ELEMENT_THEORY></metadata><data><meanElements><EPOCH>2025-08-16T16:00:03.000096</EPOCH><MEAN_MOTION>14.99440207</MEAN_MOTION><ECCENTRICITY>.001275</ECCENTRICITY><INCLINATION>51.8928</INCLINATION><RA_OF_ASC_NODE>74.2369</RA_OF_ASC_NODE><ARG_OF_PERICENTER>313.9108</ARG_OF_PERICENTER><MEAN_ANOMALY>255.2076</MEAN_ANOMALY></meanElements><tleParameters><EPHEMERIS_TYPE>0</EPHEMERIS_TYPE><CLASSIFICATION_TYPE>U</CLASSIFICATION_TYPE><NORAD_CAT_ID>64505</NORAD_CAT_ID><ELEMENT_SET_NO>999</ELEMENT_SET_NO><REV_AT_EPOCH>903</REV_AT_EPOCH><BSTAR>-.16002E-2</BSTAR><MEAN_MOTION_DOT>-.20074E-3</MEAN_MOTION_DOT><MEAN_MOTION_DDOT>0</MEAN_MOTION_DDOT></tleParameters></data></segment></body></omm>
<omm id="CCSDS_OMM_VERS" version="2.0">
<header><CREATION_DATE/><ORIGINATOR/></header><body><segment><metadata><OBJECT_NAME>KUIPER-00046</OBJECT_NAME><OBJECT_ID>2025-134G</OBJECT_ID><CENTER_NAME>EARTH</CENTER_NAME><REF_FRAME>TEME</REF_FRAME><TIME_SYSTEM>UTC</TIME_SYSTEM><MEAN_ELEMENT_THEORY>SGP4</MEAN_ELEMENT_THEORY></metadata><data><meanElements><EPOCH>2025-08-16T16:00:03.000096</EPOCH><MEAN_MOTION>15.12279150</MEAN_MOTION><ECCENTRICITY>.0010216</ECCENTRICITY><INCLINATION>51.8955</INCLINATION><RA_OF_ASC_NODE>72.4839</RA_OF_ASC_NODE><ARG_OF_PERICENTER>320.0679</ARG_OF_PERICENTER><MEAN_ANOMALY>36.1430</MEAN_ANOMALY></meanElements><tleParameters><EPHEMERIS_TYPE>0</EPHEMERIS_TYPE><CLASSIFICATION_TYPE>U</CLASSIFICATION_TYPE><NORAD_CAT_ID>64506</NORAD_CAT_ID><ELEMENT_SET_NO>999</ELEMENT_SET_NO><REV_AT_EPOCH>907</REV_AT_EPOCH><BSTAR>-.18574E-2</BSTAR><MEAN_MOTION_DOT>-.32732E-3</MEAN_MOTION_DOT><MEAN_MOTION_DDOT>0</MEAN_MOTION_DDOT></tleParameters></data></segment></body></omm>
<omm id="CCSDS_OMM_VERS" version="2.0">
<header><CREATION_DATE/><ORIGINATOR/></header><body><segment><metadata><OBJECT_NAME>KUIPER-00047</OBJECT_NAME><OBJECT_ID>2025-134H</OBJECT_ID><CENTER_NAME>EARTH</CENTER_NAME><REF_FRAME>TEME</REF_FRAME><TIME_SYSTEM>UTC</TIME_SYSTEM><MEAN_ELEMENT_THEORY>SGP4</MEAN_ELEMENT_THEORY></metadata><data><meanElements><EPOCH>2025-08-15T20:47:22.374816</EPOCH><MEAN_MOTION>15.34748020</MEAN_MOTION><ECCENTRICITY>.0010439</ECCENTRICITY><INCLINATION>51.8618</INCLINATION><RA_OF_ASC_NODE>73.8818</RA_OF_ASC_NODE><ARG_OF_PERICENTER>316.7634</ARG_OF_PERICENTER><MEAN_ANOMALY>43.2531</MEAN_ANOMALY></meanElements><tleParameters><EPHEMERIS_TYPE>0</EPHEMERIS_TYPE><CLASSIFICATION_TYPE>U</CLASSIFICATION_TYPE><NORAD_CAT_ID>64507</NORAD_CAT_ID><ELEMENT_SET_NO>999</ELEMENT_SET_NO><REV_AT_EPOCH>898</REV_AT_EPOCH><BSTAR>.76147E-3</BSTAR><MEAN_MOTION_DOT>.25788E-3</MEAN_MOTION_DOT><MEAN_MOTION_DDOT>0</MEAN_MOTION_DDOT></tleParameters></data></segment></body></omm>
<omm id="CCSDS_OMM_VERS" version="2.0">
<header><CREATION_DATE/><ORIGINATOR/></header><body><segment><metadata><OBJECT_NAME>KUIPER-00048</OBJECT_NAME><OBJECT_ID>2025-134J</OBJECT_ID><CENTER_NAME>EARTH</CENTER_NAME><REF_FRAME>TEME</REF_FRAME><TIME_SYSTEM>UTC</TIME_SYSTEM><MEAN_ELEMENT_THEORY>SGP4</MEAN_ELEMENT_THEORY></metadata><data><meanElements><EPOCH>2025-08-15T20:41:06.728352</EPOCH><MEAN_MOTION>15.36843561</MEAN_MOTION><ECCENTRICITY>.0003588</ECCENTRICITY><INCLINATION>51.8760</INCLINATION><RA_OF_ASC_NODE>73.1853</RA_OF_ASC_NODE><ARG_OF_PERICENTER>294.5100</ARG_OF_PERICENTER><MEAN_ANOMALY>65.5512</MEAN_ANOMALY></meanElements><tleParameters><EPHEMERIS_TYPE>0</EPHEMERIS_TYPE><CLASSIFICATION_TYPE>U</CLASSIFICATION_TYPE><NORAD_CAT_ID>64508</NORAD_CAT_ID><ELEMENT_SET_NO>999</ELEMENT_SET_NO><REV_AT_EPOCH>899</REV_AT_EPOCH><BSTAR>.95691E-3</BSTAR><MEAN_MOTION_DOT>.34775E-3</MEAN_MOTION_DOT><MEAN_MOTION_DDOT>0</MEAN_MOTION_DDOT></tleParameters></data></segment></body></omm>
<omm id="CCSDS_OMM_VERS" version="2.0">
<header><CREATION_DATE/><ORIGINATOR/></header><body><segment><metadata><OBJECT_NAME>KUIPER-00049</OBJECT_NAME><OBJECT_ID>2025-134K</OBJECT_ID><CENTER_NAME>EARTH</CENTER_NAME><REF_FRAME>TEME</REF_FRAME><TIME_SYSTEM>UTC</TIME_SYSTEM><MEAN_ELEMENT_THEORY>SGP4</MEAN_ELEMENT_THEORY></metadata><data><meanElements><EPOCH>2025-08-16T13:03:03.540672</EPOCH><MEAN_MOTION>15.35960642</MEAN_MOTION><ECCENTRICITY>.000654</ECCENTRICITY><INCLINATION>51.8727</INCLINATION><RA_OF_ASC_NODE>70.2263</RA_OF_ASC_NODE><ARG_OF_PERICENTER>305.0090</ARG_OF_PERICENTER><MEAN_ANOMALY>55.0282</MEAN_ANOMALY></meanElements><tleParameters><EPHEMERIS_TYPE>0</EPHEMERIS_TYPE><CLASSIFICATION_TYPE>U</CLASSIFICATION_TYPE><NORAD_CAT_ID>64509</NORAD_CAT_ID><ELEMENT_SET_NO>999</ELEMENT_SET_NO><REV_AT_EPOCH>955</REV_AT_EPOCH><BSTAR>.69401E-3</BSTAR><MEAN_MOTION_DOT>.24379E-3</MEAN_MOTION_DOT><MEAN_MOTION_DDOT>0</MEAN_MOTION_DDOT></tleParameters></data></segment></body></omm>
<omm id="CCSDS_OMM_VERS" version="2.0">
<header><CREATION_DATE/><ORIGINATOR/></header><body><segment><metadata><OBJECT_NAME>KUIPER-00050</OBJECT_NAME><OBJECT_ID>2025-134L</OBJECT_ID><CENTER_NAME>EARTH</CENTER_NAME><REF_FRAME>TEME</REF_FRAME><TIME_SYSTEM>UTC</TIME_SYSTEM><MEAN_ELEMENT_THEORY>SGP4</MEAN_ELEMENT_THEORY></metadata><data><meanElements><EPOCH>2025-08-16T07:01:37.694496</EPOCH><MEAN_MOTION>15.35552510</MEAN_MOTION><ECCENTRICITY>.0007307</ECCENTRICITY><INCLINATION>51.8736</INCLINATION><RA_OF_ASC_NODE>71.5459</RA_OF_ASC_NODE><ARG_OF_PERICENTER>296.5749</ARG_OF_PERICENTER><MEAN_ANOMALY>63.4488</MEAN_ANOMALY></meanElements><tleParameters><EPHEMERIS_TYPE>0</EPHEMERIS_TYPE><CLASSIFICATION_TYPE>U</CLASSIFICATION_TYPE><NORAD_CAT_ID>64510</NORAD_CAT_ID><ELEMENT_SET_NO>999</ELEMENT_SET_NO><REV_AT_EPOCH>951</REV_AT_EPOCH><BSTAR>.64406E-3</BSTAR><MEAN_MOTION_DOT>.22296E-3</MEAN_MOTION_DOT><MEAN_MOTION_DDOT>0</MEAN_MOTION_DDOT></tleParameters></data></segment></body></omm>
<omm id="CCSDS_OMM_VERS" version="2.0">
<header><CREATION_DATE/><ORIGINATOR/></header><body><segment><metadata><OBJECT_NAME>KUIPER-00051</OBJECT_NAME><OBJECT_ID>2025-134M</OBJECT_ID><CENTER_NAME>EARTH</CENTER_NAME><REF_FRAME>TEME</REF_FRAME><TIME_SYSTEM>UTC</TIME_SYSTEM><MEAN_ELEMENT_THEORY>SGP4</MEAN_ELEMENT_THEORY></metadata><data><meanElements><EPOCH>2025-08-16T12:56:21.219936</EPOCH><MEAN_MOTION>15.34827520</MEAN_MOTION><ECCENTRICITY>.0003584</ECCENTRICITY><INCLINATION>51.8681</INCLINATION><RA_OF_ASC_NODE>70.2055</RA_OF_ASC_NODE><ARG_OF_PERICENTER>311.0283</ARG_OF_PERICENTER><MEAN_ANOMALY>49.0392</MEAN_ANOMALY></meanElements><tleParameters><EPHEMERIS_TYPE>0</EPHEMERIS_TYPE><CLASSIFICATION_TYPE>U</CLASSIFICATION_TYPE><NORAD_CAT_ID>64511</NORAD_CAT_ID><ELEMENT_SET_NO>999</ELEMENT_SET_NO><REV_AT_EPOCH>955</REV_AT_EPOCH><BSTAR>.22673E-3</BSTAR><MEAN_MOTION_DOT>.7401E-4</MEAN_MOTION_DOT><MEAN_MOTION_DDOT>0</MEAN_MOTION_DDOT></tleParameters></data></segment></body></omm>
<omm id="CCSDS_OMM_VERS" version="2.0">
<header><CREATION_DATE/><ORIGINATOR/></header><body><segment><metadata><OBJECT_NAME>KUIPER-00052</OBJECT_NAME><OBJECT_ID>2025-134N</OBJECT_ID><CENTER_NAME>EARTH</CENTER_NAME><REF_FRAME>TEME</REF_FRAME><TIME_SYSTEM>UTC</TIME_SYSTEM><MEAN_ELEMENT_THEORY>SGP4</MEAN_ELEMENT_THEORY></metadata><data><meanElements><EPOCH>2025-08-16T06:05:43.876320</EPOCH><MEAN_MOTION>15.54622851</MEAN_MOTION><ECCENTRICITY>.000508</ECCENTRICITY><INCLINATION>51.8763</INCLINATION><RA_OF_ASC_NODE>69.1031</RA_OF_ASC_NODE><ARG_OF_PERICENTER>334.2660</ARG_OF_PERICENTER><MEAN_ANOMALY>25.8081</MEAN_ANOMALY></meanElements><tleParameters><EPHEMERIS_TYPE>0</EPHEMERIS_TYPE><CLASSIFICATION_TYPE>U</CLASSIFICATION_TYPE><NORAD_CAT_ID>64512</NORAD_CAT_ID><ELEMENT_SET_NO>999</ELEMENT_SET_NO><REV_AT_EPOCH>954</REV_AT_EPOCH><BSTAR>.13066E-2</BSTAR><MEAN_MOTION_DOT>.88591E-3</MEAN_MOTION_DOT><MEAN_MOTION_DDOT>0</MEAN_MOTION_DDOT></tleParameters></data></segment></body></omm>

</ndm>
