KUIPER-00044            
1 64505U 25134F   25228.66670139 -.00020074  00000+0 -16002-2 0  9997
2 64505  51.8928  74.2369 0012750 313.9108 255.2076 14.99440207  9035
KUIPER-00046            
1 64506U 25134G   25228.66670139 -.00032732  00000+0 -18574-2 0  9998
2 64506  51.8955  72.4839 0010216 320.0679  36.1430 15.12279150  9072
KUIPER-00047            
1 64507U 25134H   25227.86623119  .00025788  00000+0  76147-3 0  9998
2 64507  51.8618  73.8818 0010439 316.7634  43.2531 15.34748020  8982
KUIPER-00048            
1 64508U 25134J   25227.86188343  .00034775  00000+0  95691-3 0  9995
2 64508  51.8760  73.1853 0003588 294.5100  65.5512 15.36843561  8996
KUIPER-00049            
1 64509U 25134K   25228.54379098  .00024379  00000+0  69401-3 0  9990
2 64509  51.8727  70.2263 0006540 305.0090  55.0282 15.35960642  9550
KUIPER-00050            
1 64510U 25134L   25228.29279739  .00022296  00000+0  64406-3 0  9991
2 64510  51.8736  71.5459 0007307 296.5749  63.4488 15.35552510  9518
KUIPER-00051            
1 64511U 25134M   25228.53913449  .00007401  00000+0  22673-3 0  9993
2 64511  51.8681  70.2055 0003584 311.0283  49.0392 15.34827520  9558
KUIPER-00052            
1 64512U 25134N   25228.25398005  .00088591  00000+0  13066-2 0  9992
2 64512  51.8763  69.1031 0005080 334.2660  25.8081 15.54622851  9548
